NORAD_CAT_ID,OBJECT_NAME,OBJECT_TYPE,EPOCH,MEAN_MOTION,ECCENTRICITY,INCLINATION,RA_OF_ASC_NODE,ARG_OF_PERICENTER,MEAN_ANOMALY,BSTAR,MEAN_MOTION_DOT,MEAN_MOTION_DDOT,TLE_LINE0,TLE_LINE1,TLE_LINE2,SEMIMAJOR_AXIS,PERIOD,APOGEE,PERIGEE,DECAYED
49450.0,STARLINK-3127,PAYLOAD,2024-04-23 05:48:46,15.08833143,0.0001662,53.2194,56.2433,98.4614,261.6567,0.00027511,4.092e-05,0.0,0 STARLINK-3127,1 49450U 21104AU  24114.24219986  .00004092  00000-0  27511-3 0  9997,2 49450  53.2194  56.2433 0001662  98.4614 261.6567 15.08833143135556,6917.901,95.438,540.916,538.617,0.0
49450.0,STARLINK-3127,PAYLOAD,2024-04-24 02:28:46,15.08844334,0.0001773,53.2192,52.3773,102.8525,257.2665,0.00017185,2.448e-05,0.0,0 STARLINK-3127,1 49450U 21104AU  24115.10331520  .00002448  00000-0  17185-3 0  9991,2 49450  53.2192  52.3773 0001773 102.8525 257.2665 15.08844334136490,6917.867,95.437,540.959,538.506,0.0
49450.0,STARLINK-3127,PAYLOAD,2024-04-24 05:39:32,15.08851201,0.0001649,53.2186,51.7838,111.5454,248.5714,0.00030349,4.547e-05,0.0,0 STARLINK-3127,1 49450U 21104AU  24115.23579221  .00004547  00000-0  30349-3 0  9996,2 49450  53.2186  51.7838 0001649 111.5454 248.5714 15.08851201135700,6917.846,95.437,540.852,538.57,0.0
49450.0,STARLINK-3127,PAYLOAD,2024-04-25 02:19:33,15.08839266,0.0001455,53.2188,47.9205,97.117,262.9988,7.2804e-05,8.71e-06,0.0,0 STARLINK-3127,1 49450U 21104AU  24116.09691941  .00000871  00000-0  72804-4 0  9994,2 49450  53.2188  47.9205 0001455  97.1170 262.9988 15.08839266136640,6917.883,95.438,540.754,538.741,0.0
49450.0,STARLINK-3127,PAYLOAD,2024-04-25 22:59:34,15.08839884,0.0001477,53.2182,44.0496,110.0783,250.0368,3.3111e-05,2.39e-06,0.0,0 STARLINK-3127,1 49450U 21104AU  24116.95803935  .00000239  00000-0  33111-4 0  9993,2 49450  53.2182  44.0496 0001477 110.0783 250.0368 15.08839884135963,6917.881,95.438,540.768,538.724,0.0
49450.0,STARLINK-3127,PAYLOAD,2024-04-26 11:42:38,15.08858773,0.000145,53.2195,41.6882,120.9459,239.1675,0.00011714,1.578e-05,0.0,0 STARLINK-3127,1 49450U 21104AU  24117.48794631  .00001578  00000-0  11714-3 0  9995,2 49450  53.2195  41.6882 0001450 120.9459 239.1675 15.08858773136856,6917.823,95.436,540.691,538.685,0.0
49450.0,STARLINK-3127,PAYLOAD,2024-04-27 03:36:30,15.08848518,0.0001334,53.2184,38.7046,99.9199,260.1943,0.00024398,3.598e-05,0.0,0 STARLINK-3127,1 49450U 21104AU  24118.15035578  .00003598  00000-0  24398-3 0  9994,2 49450  53.2184  38.7046 0001334  99.9199 260.1943 15.08848518136959,6917.854,95.437,540.642,538.797,0.0
49450.0,STARLINK-3127,PAYLOAD,2024-04-27 11:33:25,15.08866497,8.83e-05,53.2184,37.219,86.2515,273.8578,0.00044636,6.828e-05,0.0,0 STARLINK-3127,1 49450U 21104AU  24118.48154191  .00006828  00000-0  44636-3 0  9999,2 49450  53.2184  37.2190 0000883  86.2515 273.8578 15.08866497137000,6917.799,95.436,540.275,539.054,0.0
49450.0,STARLINK-3127,PAYLOAD,2024-04-28 03:27:18,15.08832469,0.0001158,53.2176,34.2443,95.4666,264.6459,-0.00016328,-2.885e-05,0.0,0 STARLINK-3127,1 49450U 21104AU  24119.14396537 -.00002885  00000-0 -16328-3 0  9993,2 49450  53.2176  34.2443 0001158  95.4666 264.6459 15.08832469137103,6917.903,95.438,540.57,538.967,0.0
49450.0,STARLINK-3127,PAYLOAD,2024-04-28 11:24:13,15.08839359,0.0001143,53.2176,32.7578,78.0524,282.0596,-6.7325e-05,-1.359e-05,0.0,0 STARLINK-3127,1 49450U 21104AU  24119.47516171 -.00001359  00000-0 -67325-4 0  9996,2 49450  53.2176  32.7578 0001143  78.0524 282.0596 15.08839359136345,6917.882,95.438,540.538,538.957,0.0
49450.0,STARLINK-3127,PAYLOAD,2024-04-28 22:31:56,15.0882945,0.0001261,53.2168,30.68,81.6073,278.5062,9.607e-05,1.241e-05,0.0,0 STARLINK-3127,1 49450U 21104AU  24119.93885075  .00001241  00000-0  96070-4 0  9996,2 49450  53.2168  30.6800 0001261  81.6073 278.5062 15.08829450136418,6917.913,95.438,540.65,538.905,0.0
49450.0,STARLINK-3127,PAYLOAD,2024-04-29 03:18:05,15.08846713,0.0001141,53.2179,29.784,98.101,262.0112,0.0001158,1.556e-05,0.0,0 STARLINK-3127,1 49450U 21104AU  24120.13756161  .00001556  00000-0  11580-3 0  9994,2 49450  53.2179  29.7840 0001141  98.1010 262.0112 15.08846713137252,6917.86,95.437,540.514,538.936,0.0
49450.0,STARLINK-3127,PAYLOAD,2024-04-29 11:15:00,15.08855586,0.0001229,53.2179,28.2978,83.2844,276.8288,0.00021358,3.114e-05,0.0,0 STARLINK-3127,1 49450U 21104AU  24120.46875851  .00003114  00000-0  21358-3 0  9994,2 49450  53.2179  28.2978 0001229  83.2844 276.8288 15.08855586136495,6917.833,95.437,540.548,538.848,0.0
49450.0,STARLINK-3127,PAYLOAD,2024-04-29 22:22:44,15.08816753,0.0001462,53.2192,26.2166,78.2515,281.8641,0.00017657,2.522e-05,0.0,0 STARLINK-3127,1 49450U 21104AU  24120.93246130  .00002522  00000-0  17657-3 0  9997,2 49450  53.2192  26.2166 0001462  78.2515 281.8641 15.08816753136565,6917.951,95.439,540.828,538.805,0.0
49450.0,STARLINK-3127,PAYLOAD,2024-04-29 23:58:07,15.08817506,0.000169,53.2203,25.9199,75.7164,284.4016,0.00017593,2.511e-05,0.0,0 STARLINK-3127,1 49450U 21104AU  24120.99870313  .00002511  00000-0  17593-3 0  9996,2 49450  53.2203  25.9199 0001690  75.7164 284.4016 15.08817506137388,6917.949,95.439,540.983,538.645,0.0
49450.0,STARLINK-3127,PAYLOAD,2024-04-30 11:05:50,15.08826033,0.0001414,53.2191,23.8393,74.3865,285.7283,4.0723e-05,3.6e-06,0.0,0 STARLINK-3127,1 49450U 21104AU  24121.46238464  .00000360  00000-0  40723-4 0  9996,2 49450  53.2191  23.8393 0001414  74.3865 285.7283 15.08826033136647,6917.923,95.438,540.766,538.81,0.0
49450.0,STARLINK-3127,PAYLOAD,2024-04-30 20:38:08,15.08834542,0.0001158,53.2178,22.0558,65.9517,294.1596,0.00019525,2.82e-05,0.0,0 STARLINK-3127,1 49450U 21104AU  24121.85981740  .00002820  00000-0  19525-3 0  9999,2 49450  53.2178  22.0558 0001158  65.9517 294.1596 15.08834542137513,6917.897,95.438,540.563,538.961,0.0
49450.0,STARLINK-3127,PAYLOAD,2024-04-30 22:13:31,15.08842972,0.0001635,53.2185,21.7595,71.2111,288.9059,0.00018136,2.6e-05,0.0,0 STARLINK-3127,1 49450U 21104AU  24121.92605366  .00002600  00000-0  18136-3 0  9997,2 49450  53.2185  21.7595 0001635  71.2111 288.9059 15.08842972136710,6917.871,95.437,540.867,538.605,0.0
49450.0,STARLINK-3127,PAYLOAD,2024-04-30 23:48:54,15.08839206,8.2e-05,53.2188,21.4579,79.5225,280.5859,0.00037429,5.674e-05,0.0,0 STARLINK-3127,1 49450U 21104AU  24121.99229265  .00005674  00000-0  37429-3 0  9994,2 49450  53.2188  21.4579 0000820  79.5225 280.5859 15.08839206137537,6917.883,95.438,540.315,539.181,0.0
49450.0,STARLINK-3127,PAYLOAD,2024-05-02 02:50:26,15.08841291,0.0001609,53.2201,16.4022,94.3537,265.7639,0.00047433,7.269e-05,0.0,0 STARLINK-3127,1 49450U 21104AU  24123.11836392  .00007269  00000-0  47433-3 0  9993,2 49450  53.2201  16.4022 0001609  94.3537 265.7639 15.08841291137704,6917.876,95.437,540.855,538.628,0.0
49450.0,STARLINK-3127,PAYLOAD,2024-05-02 20:19:41,15.08847268,0.00015,53.2186,13.1323,99.8471,260.2691,4.059e-05,3.58e-06,0.0,0 STARLINK-3127,1 49450U 21104AU  24123.84700537  .00000358  00000-0  40590-4 0  9994,2 49450  53.2186  13.1323 0001500  99.8471 260.2691 15.08847268137811,6917.858,95.437,540.761,538.685,0.0
49450.0,STARLINK-3127,PAYLOAD,2024-05-03 09:02:44,15.08861668,0.0001205,53.2178,10.7545,87.3447,272.7684,0.00012318,1.674e-05,0.0,0 STARLINK-3127,1 49450U 21104AU  24124.37690946  .00001674  00000-0  12318-3 0  9993,2 49450  53.2178  10.7545 0001205  87.3447 272.7684 15.08861668137896,6917.814,95.436,540.513,538.846,0.0
49450.0,STARLINK-3127,PAYLOAD,2024-05-03 20:10:28,15.08819205,0.000139,53.2176,8.6728,101.2953,258.8195,-0.00042124,-6.982e-05,0.0,0 STARLINK-3127,1 49450U 21104AU  24124.84061175 -.00006982  00000-0 -42124-3 0  9998,2 49450  53.2176   8.6728 0001390 101.2953 258.8195 15.08819205137966,6917.944,95.439,540.771,538.847,0.0
49450.0,STARLINK-3127,PAYLOAD,2024-05-03 23:21:15,15.08820064,0.0001362,53.2178,8.0795,104.1886,255.9257,-0.00034783,-5.816e-05,0.0,0 STARLINK-3127,1 49450U 21104AU  24124.97309274 -.00005816  00000-0 -34783-3 0  9994,2 49450  53.2178   8.0795 0001362 104.1886 255.9257 15.08820064137177,6917.941,95.439,540.749,538.864,0.0
49450.0,STARLINK-3127,PAYLOAD,2024-05-04 20:01:16,15.088325,0.0001305,53.2186,4.2131,108.2062,251.9072,7.5735e-05,9.17e-06,0.0,0 STARLINK-3127,1 49450U 21104AU  24125.83421612  .00000917  00000-0  75735-4 0  9999,2 49450  53.2186   4.2131 0001305 108.2062 251.9072 15.08832500138110,6917.903,95.438,540.671,538.866,0.0
49450.0,STARLINK-3127,PAYLOAD,2024-05-04 23:12:02,15.08837489,0.0001194,53.2181,3.6183,107.5167,252.5956,0.00031611,4.746e-05,0.0,0 STARLINK-3127,1 49450U 21104AU  24125.96669633  .00004746  00000-0  31611-3 0  9998,2 49450  53.2181   3.6183 0001194 107.5167 252.5956 15.08837489137320,6917.888,95.438,540.579,538.927,0.0
49450.0,STARLINK-3127,PAYLOAD,2024-05-05 19:52:03,15.08858608,0.0001205,53.2182,359.7529,111.4779,248.6342,0.00078138,0.00012176,0.0,0 STARLINK-3127,1 49450U 21104AU  24126.82781476  .00012176  00000-0  78138-3 0  9995,2 49450  53.2182 359.7529 0001205 111.4779 248.6342 15.08858608138261,6917.824,95.436,540.522,538.855,0.0
49450.0,STARLINK-3127,PAYLOAD,2024-05-05 21:27:26,15.0886517,0.0001001,53.2172,359.4537,104.017,256.0933,0.00097422,0.00015261,0.0,0 STARLINK-3127,1 49450U 21104AU  24126.89405346  .00015261  00000-0  97422-3 0  9996,2 49450  53.2172 359.4537 0001001 104.0170 256.0933 15.08865170137465,6917.803,95.436,540.361,538.976,0.0
49450.0,STARLINK-3127,PAYLOAD,2024-05-06 08:35:07,15.08885121,0.0001152,53.2178,357.3709,79.5507,280.5615,0.0012973,0.00020444,0.0,0 STARLINK-3127,1 49450U 21104AU  24127.35772360  .00020444  00000-0  12973-2 0  9997,2 49450  53.2178 357.3709 0001152  79.5507 280.5615 15.08885121138341,6917.742,95.435,540.404,538.811,0.0
49450.0,STARLINK-3127,PAYLOAD,2024-05-06 21:18:12,15.08844717,8.88e-05,53.2168,354.9943,97.0104,263.0989,-1.4305e-05,-5.15e-06,0.0,0 STARLINK-3127,1 49450U 21104AU  24127.88764682 -.00000515  00000-0 -14305-4 0  9995,2 49450  53.2168 354.9943 0000888  97.0104 263.0989 15.08844717138421,6917.866,95.437,540.345,539.117,0.0
